NORAD_CAT_ID,OBJECT_NAME,OBJECT_TYPE,EPOCH,MEAN_MOTION,ECCENTRICITY,INCLINATION,RA_OF_ASC_NODE,ARG_OF_PERICENTER,MEAN_ANOMALY,BSTAR,MEAN_MOTION_DOT,MEAN_MOTION_DDOT,TLE_LINE0,TLE_LINE1,TLE_LINE2,SEMIMAJOR_AXIS,PERIOD,APOGEE,PERIGEE,DECAYED
51744.0,STARLINK-3452,PAYLOAD,2023-12-06 11:07:45,15.08848768,0.0001645,53.2196,59.2449,89.6981,270.42,-2.2921e-05,-6.53e-06,0.0,0 STARLINK-3452,1 51744U 22016AG  23340.46372263 -.00000653  00000-0 -22921-4 0  9993,2 51744  53.2196  59.2449 0001645  89.6981 270.4200 15.08848768 99131,6917.854,95.437,540.857,538.581,0.0
51744.0,STARLINK-3452,PAYLOAD,2023-12-07 04:37:00,15.08842715,0.000178,53.2194,55.9779,67.7014,292.4167,-2.6983e-05,-7.18e-06,0.0,0 STARLINK-3452,1 51744U 22016AG  23341.19236492 -.00000718  00000-0 -26983-4 0  9991,2 51744  53.2194  55.9779 0001780  67.7014 292.4167 15.08842715100306,6917.872,95.437,540.968,538.506,0.0
51744.0,STARLINK-3452,PAYLOAD,2023-12-07 12:33:56,15.08842408,0.0001768,53.219,54.4878,66.5744,293.5434,-5.7087e-05,-1.197e-05,0.0,0 STARLINK-3452,1 51744U 22016AG  23341.52356513 -.00001197  00000-0 -57087-4 0  9996,2 51744  53.2190  54.4878 0001768  66.5744 293.5434 15.08842408 99292,6917.873,95.437,540.961,538.515,0.0
51744.0,STARLINK-3452,PAYLOAD,2023-12-08 10:49:19,15.08838739,0.0001923,53.2191,50.3246,61.7979,298.3207,9.8943e-05,1.287e-05,0.0,0 STARLINK-3452,1 51744U 22016AG  23342.45092392  .00001287  00000-0  98943-4 0  9995,2 51744  53.2191  50.3246 0001923  61.7979 298.3207 15.08838739100495,6917.884,95.438,541.08,538.419,0.0
51744.0,STARLINK-3452,PAYLOAD,2023-12-08 14:00:05,15.08843787,0.00019,53.2191,49.7296,62.7193,297.3992,0.00013969,1.936e-05,0.0,0 STARLINK-3452,1 51744U 22016AG  23342.58339969  .00001936  00000-0  13969-3 0  9998,2 51744  53.2191  49.7296 0001900  62.7193 297.3992 15.08843787 99458,6917.869,95.437,541.048,538.419,0.0
51744.0,STARLINK-3452,PAYLOAD,2023-12-09 10:40:06,15.08840652,0.0001905,53.2192,45.8625,65.9023,294.2168,6.4054e-05,7.31e-06,0.0,0 STARLINK-3452,1 51744U 22016AG  23343.44452395  .00000731  00000-0  64054-4 0  9997,2 51744  53.2192  45.8625 0001905  65.9023 294.2168 15.08840652100647,6917.878,95.438,541.061,538.426,0.0
51744.0,STARLINK-3452,PAYLOAD,2023-12-09 13:50:52,15.08844913,0.0001788,53.2192,45.2668,71.6709,288.4477,8.4055e-05,1.05e-05,0.0,0 STARLINK-3452,1 51744U 22016AG  23343.57699973  .00001050  00000-0  84055-4 0  9994,2 51744  53.2192  45.2668 0001788  71.6709 288.4477 15.08844913 99607,6917.865,95.437,540.967,538.493,0.0
51744.0,STARLINK-3452,PAYLOAD,2023-12-10 13:41:40,15.08844247,0.0001868,53.2198,40.8017,72.8179,287.3018,-7.9901e-05,-1.56e-05,0.0,0 STARLINK-3452,1 51744U 22016AG  23344.57060490 -.00001560  00000-0 -79901-4 0  9993,2 51744  53.2198  40.8017 0001868  72.8179 287.3018 15.08844247 99750,6917.867,95.437,541.025,538.44,0.0
51744.0,STARLINK-3452,PAYLOAD,2023-12-11 10:21:40,15.08842189,0.0001671,53.2186,36.9392,104.9502,255.1675,4.8403e-05,4.82e-06,0.0,0 STARLINK-3452,1 51744U 22016AG  23345.43171933  .00000482  00000-0  48403-4 0  9997,2 51744  53.2186  36.9392 0001671 104.9502 255.1675 15.08842189 99887,6917.874,95.437,540.895,538.583,0.0
51744.0,STARLINK-3452,PAYLOAD,2023-12-12 10:12:27,15.0883905,0.0001628,53.2188,32.4819,94.047,266.0708,4.5555e-05,4.37e-06,0.0,0 STARLINK-3452,1 51744U 22016AG  23346.42532316  .00000437  00000-0  45555-4 0  9998,2 51744  53.2188  32.4819 0001628  94.0470 266.0708 15.08839050101097,6917.883,95.438,540.875,538.622,0.0
51744.0,STARLINK-3452,PAYLOAD,2023-12-13 08:27:52,15.08837192,0.0001787,53.2196,28.3244,111.3036,248.8147,1.8308e-05,3e-08,0.0,0 STARLINK-3452,1 51744U 22016AG  23347.35268565  .00000003  00000-0  18308-4 0  9998,2 51744  53.2196  28.3244 0001787 111.3036 248.8147 15.08837192100177,6917.889,95.438,540.99,538.518,0.0
51744.0,STARLINK-3452,PAYLOAD,2023-12-14 09:54:02,15.08840687,0.0001521,53.219,23.5641,90.3102,269.8064,4.1642e-05,3.75e-06,0.0,0 STARLINK-3452,1 51744U 22016AG  23348.41252607  .00000375  00000-0  41642-4 0  9995,2 51744  53.2190  23.5641 0001521  90.3102 269.8064 15.08840687101394,6917.878,95.438,540.795,538.691,0.0
51744.0,STARLINK-3452,PAYLOAD,2023-12-15 09:44:49,15.08839284,0.000151,53.2187,19.1024,78.1987,281.9174,8.1415e-05,1.008e-05,0.0,0 STARLINK-3452,1 51744U 22016AG  23349.40612731  .00001008  00000-0  81415-4 0  9999,2 51744  53.2187  19.1024 0001510  78.1987 281.9174 15.08839284100486,6917.883,95.438,540.792,538.703,0.0
51744.0,STARLINK-3452,PAYLOAD,2023-12-16 09:35:36,15.08839027,0.0001809,53.2197,14.6406,67.9899,292.1285,3.2378e-05,2.27e-06,0.0,0 STARLINK-3452,1 51744U 22016AG  23350.39973282  .00000227  00000-0  32378-4 0  9996,2 51744  53.2197  14.6406 0001809  67.9899 292.1285 15.08839027101696,6917.883,95.438,541.0,538.497,0.0
51744.0,STARLINK-3452,PAYLOAD,2023-12-17 07:51:01,15.08836069,0.0001992,53.2197,10.479,64.9284,295.1915,3.8904e-05,3.31e-06,0.0,0 STARLINK-3452,1 51744U 22016AG  23351.32709711  .00000331  00000-0  38904-4 0  9991,2 51744  53.2197  10.4790 0001992  64.9284 295.1915 15.08836069100778,6917.892,95.438,541.135,538.379,0.0
51744.0,STARLINK-3452,PAYLOAD,2023-12-18 07:41:46,15.08856066,0.0001635,53.2186,6.0187,79.8095,280.3081,0.00014726,2.057e-05,0.0,0 STARLINK-3452,1 51744U 22016AG  23352.32067920  .00002057  00000-0  14726-3 0  9993,2 51744  53.2186   6.0187 0001635  79.8095 280.3081 15.08856066101989,6917.831,95.437,540.827,538.565,0.0
51744.0,STARLINK-3452,PAYLOAD,2023-12-19 04:21:48,15.0883872,0.0001338,53.2193,2.148,87.5656,272.5489,-1.3682e-05,-5.06e-06,0.0,0 STARLINK-3452,1 51744U 22016AG  23353.18181488 -.00000506  00000-0 -13682-4 0  9994,2 51744  53.2193   2.1480 0001338  87.5656 272.5489 15.08838720102117,6917.884,95.438,540.675,538.824,0.0
51744.0,STARLINK-3452,PAYLOAD,2023-12-19 05:57:11,15.08839596,0.0001433,53.2176,1.8561,117.2541,242.8597,-1.122e-05,-4.67e-06,0.0,0 STARLINK-3452,1 51744U 22016AG  23353.24805344 -.00000467  00000-0 -11220-4 0  9997,2 51744  53.2176   1.8561 0001433 117.2541 242.8597 15.08839596101069,6917.882,95.438,540.738,538.755,0.0
51744.0,STARLINK-3452,PAYLOAD,2023-12-20 07:23:22,15.08842167,0.0001523,53.2184,357.1003,105.64,254.4761,-8.3688e-05,-1.62e-05,0.0,0 STARLINK-3452,1 51744U 22016AG  23354.30789604 -.00001620  00000-0 -83688-4 0  9994,2 51744  53.2184 357.1003 0001523 105.6400 254.4761 15.08842167102286,6917.874,95.437,540.792,538.685,0.0
51744.0,STARLINK-3452,PAYLOAD,2023-12-21 04:03:22,15.0884687,0.0001519,53.2178,353.2316,118.1564,241.9582,0.00023535,3.46e-05,0.0,0 STARLINK-3452,1 51744U 22016AG  23355.16900708  .00003460  00000-0  23535-3 0  9995,2 51744  53.2178 353.2316 0001519 118.1564 241.9582 15.08846870102410,6917.859,95.437,540.775,538.674,0.0
51744.0,STARLINK-3452,PAYLOAD,2023-12-21 05:38:45,15.08848767,0.0001511,53.2178,352.9369,117.7279,242.3866,0.00025959,3.847e-05,0.0,0 STARLINK-3452,1 51744U 22016AG  23355.23524695  .00003847  00000-0  25959-3 0  9991,2 51744  53.2178 352.9369 0001511 117.7279 242.3866 15.08848767101364,6917.854,95.437,540.764,538.673,0.0
51744.0,STARLINK-3452,PAYLOAD,2023-12-22 03:54:10,15.08838684,0.000156,53.2169,348.7694,110.9528,249.1631,-1.4497e-05,-5.19e-06,0.0,0 STARLINK-3452,1 51744U 22016AG  23356.16261695 -.00000519  00000-0 -14497-4 0  9993,2 51744  53.2169 348.7694 0001560 110.9528 249.1631 15.08838684102569,6917.884,95.438,540.829,538.67,0.0
51744.0,STARLINK-3452,PAYLOAD,2023-12-22 07:04:56,15.08838914,0.0001543,53.2178,348.1764,113.2477,246.8678,2.8322e-05,1.63e-06,0.0,0 STARLINK-3452,1 51744U 22016AG  23356.29510146  .00000163  00000-0  28322-4 0  9990,2 51744  53.2178 348.1764 0001543 113.2477 246.8678 15.08838914101527,6917.884,95.438,540.816,538.681,0.0
51744.0,STARLINK-3452,PAYLOAD,2023-12-23 08:31:06,15.08853782,0.0001481,53.2185,343.4183,98.1139,262.0021,6.1133e-05,6.85e-06,0.0,0 STARLINK-3452,1 51744U 22016AG  23357.35493288  .00000685  00000-0  61133-4 0  9991,2 51744  53.2185 343.4183 0001481  98.1139 262.0021 15.08853782102742,6917.838,95.437,540.728,538.679,0.0
51744.0,STARLINK-3452,PAYLOAD,2023-12-23 22:49:35,15.08836618,0.0001722,53.2188,340.7435,82.2958,277.823,0.00011523,1.546e-05,0.0,0 STARLINK-3452,1 51744U 22016AG  23357.95110467  .00001546  00000-0  11523-3 0  9996,2 51744  53.2188 340.7435 0001722  82.2958 277.8230 15.08836618101773,6917.891,95.438,540.947,538.564,0.0
51744.0,STARLINK-3452,PAYLOAD,2023-12-24 03:35:44,15.08838114,0.000173,53.2187,339.8526,82.1046,278.0142,0.00013362,1.839e-05,0.0,0 STARLINK-3452,1 51744U 22016AG  23358.14982398  .00001839  00000-0  13362-3 0  9996,2 51744  53.2187 339.8526 0001730  82.1046 278.0142 15.08838114102867,6917.886,95.438,540.948,538.554,0.0
51744.0,STARLINK-3452,PAYLOAD,2023-12-24 08:21:53,15.08848847,0.0001772,53.2173,338.9573,86.4006,273.7189,0.00029265,4.374e-05,0.0,0 STARLINK-3452,1 51744U 22016AG  23358.34853898  .00004374  00000-0  29265-3 0  9996,2 51744  53.2173 338.9573 0001772  86.4006 273.7189 15.08848847102893,6917.853,95.437,540.944,538.493,0.0
51744.0,STARLINK-3452,PAYLOAD,2023-12-24 22:40:22,15.08834498,0.0001612,53.2169,336.2747,107.6432,252.4736,-6.9435e-05,-1.393e-05,0.0,0 STARLINK-3452,1 51744U 22016AG  23358.94470585 -.00001393  00000-0 -69435-4 0  9994,2 51744  53.2169 336.2747 0001612 107.6432 252.4736 15.08834498101926,6917.897,95.438,540.877,538.647,0.0
51744.0,STARLINK-3452,PAYLOAD,2023-12-25 03:26:31,15.08842447,0.0002394,53.2168,335.3892,108.3236,251.8016,6.349e-05,7.22e-06,0.0,0 STARLINK-3452,1 51744U 22016AG  23359.14342270  .00000722  00000-0  63490-4 0  9994,2 51744  53.2168 335.3892 0002394 108.3236 251.8016 15.08842447103013,6917.873,95.437,541.394,538.082,0.0
51744.0,STARLINK-3452,PAYLOAD,2023-12-25 08:12:41,15.08845105,0.0002264,53.2167,334.4977,93.8813,266.2438,0.00010497,1.383e-05,0.0,0 STARLINK-3452,1 51744U 22016AG  23359.34214329  .00001383  00000-0  10497-3 0  9991,2 51744  53.2167 334.4977 0002264  93.8813 266.2438 15.08845105101987,6917.865,95.437,541.296,538.164,0.0
